[{"OBJECT_NAME":"LYNK TOWER 4","OBJECT_ID":"2023-001AB","EPOCH":"2026-03-09T16:15:30.644928","MEAN_MOTION":15.31819885,"ECCENTRICITY":0.00103213,"INCLINATION":97.3324,"RA_OF_ASC_NODE":128.594,"ARG_OF_PERICENTER":112.3386,"MEAN_ANOMALY":247.895,"EPHEMERIS_TYPE":0,"CLASSIFICATION_TYPE":"U","NORAD_CAT_ID":55034,"ELEMENT_SET_NO":999,"REV_AT_EPOCH":17658,"BSTAR":0.00030013829,"MEAN_MOTION_DOT":9.16e-5,"MEAN_MOTION_DDOT":0},{"OBJECT_NAME":"STARLINK-35145","OBJECT_ID":"2025-212K","EPOCH":"2026-03-09T23:24:39.578112","MEAN_MOTION":15.30193355,"ECCENTRICITY":0.00017534,"INCLINATION":53.16,"RA_OF_ASC_NODE":344.6111,"ARG_OF_PERICENTER":28.2964,"MEAN_ANOMALY":331.8132,"EPHEMERIS_TYPE":0,"CLASSIFICATION_TYPE":"U","NORAD_CAT_ID":65685,"ELEMENT_SET_NO":999,"REV_AT_EPOCH":2723,"BSTAR":-0.00054746602,"MEAN_MOTION_DOT":-0.00016535,"MEAN_MOTION_DDOT":0}]
